[{"OBJECT_NAME":"YAOGAN-14","OBJECT_ID":"2012-021A","EPOCH":"2026-03-09T23:13:16.463424","MEAN_MOTION":15.26486019,"ECCENTRICITY":0.00056417,"INCLINATION":97.2863,"RA_OF_ASC_NODE":208.4378,"ARG_OF_PERICENTER":161.6562,"MEAN_ANOMALY":198.4882,"EPHEMERIS_TYPE":0,"CLASSIFICATION_TYPE":"U","NORAD_CAT_ID":38257,"ELEMENT_SET_NO":999,"REV_AT_EPOCH":77067,"BSTAR":0.00037795498,"MEAN_MOTION_DOT":9.798e-5,"MEAN_MOTION_DDOT":0},{"OBJECT_NAME":"STARLINK-35810","OBJECT_ID":"2025-268U","EPOCH":"2026-03-09T03:18:54.821664","MEAN_MOTION":15.2757036,"ECCENTRICITY":0.00014395,"INCLINATION":43.0021,"RA_OF_ASC_NODE":350.3294,"ARG_OF_PERICENTER":248.8462,"MEAN_ANOMALY":111.2236,"EPHEMERIS_TYPE":0,"CLASSIFICATION_TYPE":"U","NORAD_CAT_ID":66575,"ELEMENT_SET_NO":999,"REV_AT_EPOCH":1787,"BSTAR":0.0015059189,"MEAN_MOTION_DOT":0.00041398,"MEAN_MOTION_DDOT":0}]
